0 IRIDIUM 33 DEB
1 38469U 97051ZW  13286.35935097  .00003531  00000-0  19423-2 0   537
2 38469 086.2991 154.1208 0216636 232.3465 125.8100 14.00249600230061
0 IRIDIUM 33 DEB
1 38469U 97051ZW  13290.36111615  .00004204  00000-0  23236-2 0   541
2 38469 086.2965 152.4989 0213968 219.7428 138.8056 14.00285076230625
0 IRIDIUM 33 DEB
1 38469U 97051ZW  13291.36153963  .00004204  00000-0  23236-2 0   555
2 38469 086.2965 152.0921 0213954 216.6581 141.9799 14.00293438230763
